[{"OBJECT_NAME":"FENGYUN 1C DEB","OBJECT_ID":"1999-025CND","EPOCH":"2026-04-05T02:11:51.539136","MEAN_MOTION":14.541288,"ECCENTRICITY":0.01125793,"INCLINATION":98.9643,"RA_OF_ASC_NODE":225.072,"ARG_OF_PERICENTER":310.0944,"MEAN_ANOMALY":49.0423,"EPHEMERIS_TYPE":0,"CLASSIFICATION_TYPE":"U","NORAD_CAT_ID":31952,"ELEMENT_SET_NO":999,"REV_AT_EPOCH":98856,"BSTAR":0.00049892524,"MEAN_MOTION_DOT":2.235e-5,"MEAN_MOTION_DDOT":0},{"OBJECT_NAME":"FENGYUN 1C DEB","OBJECT_ID":"1999-025CNG","EPOCH":"2026-04-05T04:50:23.968320","MEAN_MOTION":14.66207621,"ECCENTRICITY":0.00418855,"INCLINATION":99.2728,"RA_OF_ASC_NODE":351.4478,"ARG_OF_PERICENTER":194.945,"MEAN_ANOMALY":316.8431,"EPHEMERIS_TYPE":0,"CLASSIFICATION_TYPE":"U","NORAD_CAT_ID":31955,"ELEMENT_SET_NO":999,"REV_AT_EPOCH":98218,"BSTAR":0.0017972753,"MEAN_MOTION_DOT":9.974e-5,"MEAN_MOTION_DDOT":0},{"OBJECT_NAME":"FENGYUN 1C DEB","OBJECT_ID":"1999-025CNL","EPOCH":"2026-04-04T21:59:21.142752","MEAN_MOTION":14.49047386,"ECCENTRICITY":0.00261144,"INCLINATION":98.5078,"RA_OF_ASC_NODE":331.6691,"ARG_OF_PERICENTER":171.1987,"MEAN_ANOMALY":188.9669,"EPHEMERIS_TYPE":0,"CLASSIFICATION_TYPE":"U","NORAD_CAT_ID":31959,"ELEMENT_SET_NO":999,"REV_AT_EPOCH":65991,"BSTAR":0.0028175454,"MEAN_MOTION_DOT":0.0001071,"MEAN_MOTION_DDOT":0},{"OBJECT_NAME":"FENGYUN 1C DEB","OBJECT_ID":"1999-025CNR","EPOCH":"2026-04-03T19:27:16.155360","MEAN_MOTION":14.6170034,"ECCENTRICITY":0.00281626,"INCLINATION":98.7051,"RA_OF_ASC_NODE":227.9653,"ARG_OF_PERICENTER":49.9341,"MEAN_ANOMALY":310.4321,"EPHEMERIS_TYPE":0,"CLASSIFICATION_TYPE":"U","NORAD_CAT_ID":31964,"ELEMENT_SET_NO":999,"REV_AT_EPOCH":69145,"BSTAR":0.0044741957,"MEAN_MOTION_DOT":0.00022428,"MEAN_MOTION_DDOT":0},{"OBJECT_NAME":"FENGYUN 1C DEB","OBJECT_ID":"1999-025CNT","EPOCH":"2026-04-04T04:32:51.218880","MEAN_MOTION":14.6938217,"ECCENTRICITY":0.00829237,"INCLINATION":99.0295,"RA_OF_ASC_NODE":263.3341,"ARG_OF_PERICENTER":287.3666,"MEAN_ANOMALY":71.848,"EPHEMERIS_TYPE":0,"CLASSIFICATION_TYPE":"U","NORAD_CAT_ID":31966,"ELEMENT_SET_NO":999,"REV_AT_EPOCH":67393,"BSTAR":0.0016718255,"MEAN_MOTION_DOT":0.0001037,"MEAN_MOTION_DDOT":0},{"OBJECT_NAME":"FENGYUN 1C DEB","OBJECT_ID":"1999-025CNZ","EPOCH":"2026-04-04T21:24:44.197344","MEAN_MOTION":14.07583322,"ECCENTRICITY":0.00775622,"INCLINATION":99.1914,"RA_OF_ASC_NODE":143.6405,"ARG_OF_PERICENTER":77.0089,"MEAN_ANOMALY":96.1663,"EPHEMERIS_TYPE":0,"CLASSIFICATION_TYPE":"U","NORAD_CAT_ID":31972,"ELEMENT_SET_NO":999,"REV_AT_EPOCH":96552,"BSTAR":0.00023993981,"MEAN_MOTION_DOT":3.7e-6,"MEAN_MOTION_DDOT":0},{"OBJECT_NAME":"FENGYUN 1C DEB","OBJECT_ID":"1999-025CPB","EPOCH":"2026-03-31T10:59:38.508576","MEAN_MOTION":14.30829397,"ECCENTRICITY":0.00694182,"INCLINATION":98.377,"RA_OF_ASC_NODE":102.571,"ARG_OF_PERICENTER":342.2539,"MEAN_ANOMALY":17.6221,"EPHEMERIS_TYPE":0,"CLASSIFICATION_TYPE":"U","NORAD_CAT_ID":31974,"ELEMENT_SET_NO":999,"REV_AT_EPOCH":70976,"BSTAR":0.0022800324,"MEAN_MOTION_DOT":6.1e-5,"MEAN_MOTION_DDOT":0},{"OBJECT_NAME":"FENGYUN 1C DEB","OBJECT_ID":"1999-025CPF","EPOCH":"2026-04-03T21:01:26.737824","MEAN_MOTION":13.63500579,"ECCENTRICITY":0.02653514,"INCLINATION":98.388,"RA_OF_ASC_NODE":238.5479,"ARG_OF_PERICENTER":113.3175,"MEAN_ANOMALY":249.6131,"EPHEMERIS_TYPE":0,"CLASSIFICATION_TYPE":"U","NORAD_CAT_ID":31978,"ELEMENT_SET_NO":999,"REV_AT_EPOCH":93118,"BSTAR":0.0023112181,"MEAN_MOTION_DOT":2.282e-5,"MEAN_MOTION_DDOT":0},{"OBJECT_NAME":"FENGYUN 1C DEB","OBJECT_ID":"1999-025CPG","EPOCH":"2026-03-31T12:21:15.248448","MEAN_MOTION":13.70068232,"ECCENTRICITY":0.02588381,"INCLINATION":99.3712,"RA_OF_ASC_NODE":185.38,"ARG_OF_PERICENTER":359.5003,"MEAN_ANOMALY":0.5849,"EPHEMERIS_TYPE":0,"CLASSIFICATION_TYPE":"U","NORAD_CAT_ID":31979,"ELEMENT_SET_NO":999,"REV_AT_EPOCH":59401,"BSTAR":0.0023367501,"MEAN_MOTION_DOT":2.558e-5,"MEAN_MOTION_DDOT":0},{"OBJECT_NAME":"FENGYUN 1C DEB","OBJECT_ID":"1999-025CPM","EPOCH":"2026-03-24T06:32:27.227904","MEAN_MOTION":14.23156736,"ECCENTRICITY":0.0061946,"INCLINATION":98.5602,"RA_OF_ASC_NODE":89.7884,"ARG_OF_PERICENTER":293.1066,"MEAN_ANOMALY":66.3591,"EPHEMERIS_TYPE":0,"CLASSIFICATION_TYPE":"U","NORAD_CAT_ID":31984,"ELEMENT_SET_NO":999,"REV_AT_EPOCH":95817,"BSTAR":0.00033764,"MEAN_MOTION_DOT":7.35e-6,"MEAN_MOTION_DDOT":0},{"OBJECT_NAME":"FENGYUN 1C DEB","OBJECT_ID":"1999-025CPN","EPOCH":"2026-03-29T22:35:29.378400","MEAN_MOTION":14.23161097,"ECCENTRICITY":0.0150239,"INCLINATION":98.2121,"RA_OF_ASC_NODE":348.0944,"ARG_OF_PERICENTER":292.1976,"MEAN_ANOMALY":66.3322,"EPHEMERIS_TYPE":0,"CLASSIFICATION_TYPE":"U","NORAD_CAT_ID":31985,"ELEMENT_SET_NO":999,"REV_AT_EPOCH":97135,"BSTAR":0.00034303,"MEAN_MOTION_DOT":8.28e-6,"MEAN_MOTION_DDOT":0},{"OBJECT_NAME":"FENGYUN 1C DEB","OBJECT_ID":"1999-025CPP","EPOCH":"2026-03-06T16:00:06.888960","MEAN_MOTION":14.14774955,"ECCENTRICITY":0.0123371,"INCLINATION":99.7284,"RA_OF_ASC_NODE":17.7351,"ARG_OF_PERICENTER":287.1114,"MEAN_ANOMALY":71.6576,"EPHEMERIS_TYPE":0,"CLASSIFICATION_TYPE":"U","NORAD_CAT_ID":31986,"ELEMENT_SET_NO":999,"REV_AT_EPOCH":67765,"BSTAR":0.00045738456,"MEAN_MOTION_DOT":8.96e-6,"MEAN_MOTION_DDOT":0},{"OBJECT_NAME":"FENGYUN 1C DEB","OBJECT_ID":"1999-025CPQ","EPOCH":"2026-04-04T09:58:58.149984","MEAN_MOTION":14.45908049,"ECCENTRICITY":0.00504034,"INCLINATION":99.05,"RA_OF_ASC_NODE":80.3357,"ARG_OF_PERICENTER":182.2157,"MEAN_ANOMALY":335.2024,"EPHEMERIS_TYPE":0,"CLASSIFICATION_TYPE":"U","NORAD_CAT_ID":31987,"ELEMENT_SET_NO":999,"REV_AT_EPOCH":97997,"BSTAR":0.0014620945,"MEAN_MOTION_DOT":5.233e-5,"MEAN_MOTION_DDOT":0},{"OBJECT_NAME":"FENGYUN 1C DEB","OBJECT_ID":"1999-025CPR","EPOCH":"2026-03-18T10:08:13.968096","MEAN_MOTION":14.2126777,"ECCENTRICITY":0.00592438,"INCLINATION":98.1264,"RA_OF_ASC_NODE":144.1099,"ARG_OF_PERICENTER":10.8478,"MEAN_ANOMALY":349.3963,"EPHEMERIS_TYPE":0,"CLASSIFICATION_TYPE":"U","NORAD_CAT_ID":31988,"ELEMENT_SET_NO":999,"REV_AT_EPOCH":65511,"BSTAR":0.0011861466,"MEAN_MOTION_DOT":2.592e-5,"MEAN_MOTION_DDOT":0},{"OBJECT_NAME":"FENGYUN 1C DEB","OBJECT_ID":"1999-025CPS","EPOCH":"2026-04-05T03:15:32.441760","MEAN_MOTION":13.93785755,"ECCENTRICITY":0.01155174,"INCLINATION":99.1925,"RA_OF_ASC_NODE":160.7866,"ARG_OF_PERICENTER":351.4867,"MEAN_ANOMALY":37.4673,"EPHEMERIS_TYPE":0,"CLASSIFICATION_TYPE":"U","NORAD_CAT_ID":31989,"ELEMENT_SET_NO":999,"REV_AT_EPOCH":95297,"BSTAR":0.00053491201,"MEAN_MOTION_DOT":7.0e-6,"MEAN_MOTION_DDOT":0},{"OBJECT_NAME":"FENGYUN 1C DEB","OBJECT_ID":"1999-025CPT","EPOCH":"2026-04-03T12:59:55.154976","MEAN_MOTION":13.57266639,"ECCENTRICITY":0.02588324,"INCLINATION":99.1518,"RA_OF_ASC_NODE":113.4426,"ARG_OF_PERICENTER":258.2781,"MEAN_ANOMALY":257.138,"EPHEMERIS_TYPE":0,"CLASSIFICATION_TYPE":"U","NORAD_CAT_ID":31990,"ELEMENT_SET_NO":999,"REV_AT_EPOCH":64288,"BSTAR":0.00032793864,"MEAN_MOTION_DOT":2.49e-6,"MEAN_MOTION_DDOT":0}]
