FENGYUN 1C DEB          
1 31952U 99025CND 26095.09156874  .00002235  00000+0  49893-3 0  9994
2 31952  98.9643 225.0720 0112579 310.0944  49.0423 14.54128800988566
FENGYUN 1C DEB          
1 31955U 99025CNG 26095.20166630  .00009974  00000+0  17973-2 0  9991
2 31955  99.2728 351.4478 0041885 194.9450 316.8431 14.66207621982181
FENGYUN 1C DEB          
1 31959U 99025CNL 26094.91621693  .00010710  00000+0  28175-2 0  9993
2 31959  98.5078 331.6691 0026114 171.1987 188.9669 14.49047386659916
FENGYUN 1C DEB          
1 31964U 99025CNR 26093.81060365  .00022428  00000+0  44742-2 0  9997
2 31964  98.7051 227.9653 0028162  49.9341 310.4321 14.61700340691453
FENGYUN 1C DEB          
1 31966U 99025CNT 26094.18948170  .00010370  00000+0  16718-2 0  9994
2 31966  99.0295 263.3341 0082923 287.3666  71.8480 14.69382170673932
FENGYUN 1C DEB          
1 31972U 99025CNZ 26094.89217821  .00000370  00000+0  23994-3 0  9995
2 31972  99.1914 143.6405 0077562  77.0089  96.1663 14.07583322965521
FENGYUN 1C DEB          
1 31974U 99025CPB 26090.45808459  .00006100  00000+0  22800-2 0  9999
2 31974  98.3770 102.5710 0069418 342.2539  17.6221 14.30829397709766
FENGYUN 1C DEB          
1 31978U 99025CPF 26093.87600391  .00002282  00000+0  23112-2 0  9991
2 31978  98.3880 238.5479 0265351 113.3175 249.6131 13.63500579931184
FENGYUN 1C DEB          
1 31979U 99025CPG 26090.51475982  .00002558  00000+0  23368-2 0  9995
2 31979  99.3712 185.3800 0258838 359.5003   0.5849 13.70068232594013
FENGYUN 1C DEB          
1 31984U 99025CPM 26083.27253736  .00000735  00000+0  33764-3 0  9994
2 31984  98.5602  89.7884 0061946 293.1066  66.3591 14.23156736958172
FENGYUN 1C DEB          
1 31985U 99025CPN 26088.94131225  .00000828  00000+0  34303-3 0  9995
2 31985  98.2121 348.0944 0150239 292.1976  66.3322 14.23161097971350
FENGYUN 1C DEB          
1 31986U 99025CPP 26065.66674640  .00000896  00000+0  45738-3 0  9992
2 31986  99.7284  17.7351 0123371 287.1114  71.6576 14.14774955677653
FENGYUN 1C DEB          
1 31987U 99025CPQ 26094.41595081  .00005233  00000+0  14621-2 0  9995
2 31987  99.0500  80.3357 0050403 182.2157 335.2024 14.45908049979971
FENGYUN 1C DEB          
1 31988U 99025CPR 26077.42238389  .00002592  00000+0  11861-2 0  9991
2 31988  98.1264 144.1099 0059243  10.8478 349.3963 14.21267770655112
FENGYUN 1C DEB          
1 31989U 99025CPS 26095.13579215  .00000700  00000+0  53491-3 0  9991
2 31989  99.1925 160.7866 0115517 351.4867  37.4673 13.93785755952970
FENGYUN 1C DEB          
1 31990U 99025CPT 26093.54161059  .00000249  00000+0  32794-3 0  9990
2 31990  99.1518 113.4426 0258832 258.2781 257.1380 13.57266639642881
